OBJECT_NAME,OBJECT_ID,EPOCH,MEAN_MOTION,ECCENTRICITY,INCLINATION,RA_OF_ASC_NODE,ARG_OF_PERICENTER,MEAN_ANOMALY,EPHEMERIS_TYPE,CLASSIFICATION_TYPE,NORAD_CAT_ID,ELEMENT_SET_NO,REV_AT_EPOCH,BSTAR,MEAN_MOTION_DOT,MEAN_MOTION_DDOT
YAOGAN-30 05B,2018-011C,2026-07-22T04:13:21.413856,15.02863190,.00021026,34.9958,297.4227,278.9605,81.0866,0,U,43171,999,46348,.14981516E-3,.202E-4,0
YAOGAN-30 05C,2018-011D,2026-07-22T15:16:03.740160,15.02774077,.00016784,34.9972,294.8851,13.2796,346.7956,0,U,43172,999,46342,.14859094E-3,.1999E-4,0
AL YAH 3,2018-012A,2026-07-22T11:13:20.711712,1.00272185,.00037297,1.6404,82.6806,34.4517,331.3038,0,U,43174,999,3120,0,-.153E-5,0
SES-14,2018-012B,2026-07-22T11:05:43.940832,1.00272544,.00011635,0.0138,38.0090,75.2897,305.8316,0,U,43175,999,737,0,-.275E-5,0
KANOPUS-V 3,2018-014A,2026-07-22T14:55:15.773376,15.22900154,.00017204,97.3540,108.4261,90.1419,270.0015,0,U,43180,999,47011,.10733588E-3,.2447E-4,0
KANOPUS-V 4,2018-014B,2026-07-21T19:13:47.832384,15.22984792,.00018083,97.3553,107.7829,91.3652,268.7792,0,U,43181,999,47000,-.10307248E-3,-.2488E-4,0
S-NET D,2018-014G,2026-07-22T07:02:31.100064,15.16961563,.00062284,97.5322,107.8657,253.5912,106.4637,0,U,43186,999,46408,.22810539E-3,.4436E-4,0
S-NET B,2018-014H,2026-07-22T07:20:00.579264,15.16930470,.00069087,97.5325,107.8655,247.8907,112.1593,0,U,43187,999,46408,.23177301E-3,.4505E-4,0
S-NET A,2018-014J,2026-07-22T07:00:37.474560,15.16969735,.000679,97.5337,108.0676,248.8700,111.1807,0,U,43188,999,46408,.22871001E-3,.4449E-4,0
S-NET C,2018-014K,2026-07-22T10:35:50.792640,15.16922824,.00082679,97.5355,108.2963,239.9256,120.1158,0,U,43189,999,46265,.21438612E-3,.4162E-4,0
ZHANGHENG 1-01 (CSES-1),2018-015C,2026-07-22T14:28:03.559008,15.20677562,.00169288,97.6902,9.9694,140.3790,219.8686,0,U,43194,999,47002,.34619946E-3,.7562E-4,0
BEIDOU-3 M4,2018-018A,2026-07-21T00:42:34.775424,1.86231251,.00071447,56.6812,62.0321,31.4150,328.6897,0,U,43207,999,5737,0,-.8E-6,0
BEIDOU-3 M3,2018-018B,2026-07-21T15:11:33.569952,1.86231119,.00072012,56.6811,62.0163,348.0427,12.0023,0,U,43208,999,5738,0,-.79E-6,0
PAZ,2018-020A,2026-07-22T06:44:09.735072,15.19161134,.00016727,97.4460,210.1686,88.8680,271.2746,0,U,43215,999,46633,.74602868E-4,.15E-4,0
GOES 17,2018-022A,2026-07-22T10:53:45.089376,1.00272005,.00006755,1.0251,85.1599,57.9242,231.0538,0,U,43226,999,3077,0,-.18E-5,0
HISPASAT 30W-6,2018-023A,2026-07-22T07:45:30.356064,1.00272436,.00053236,0.0425,52.4066,42.9836,291.0638,0,U,43228,999,3075,0,-.213E-5,0
PODSAT,2018-023B,2026-07-20T21:51:05.171328,8.62215444,.34547239,26.8548,37.9740,257.4844,62.4445,0,U,43229,999,19568,.39703251E-3,.47379E-3,-.1068162E-5
O3B FM15,2018-024A,2026-07-21T16:10:21.042624,5.00115847,.00026006,0.0531,359.0857,119.5870,241.3509,0,U,43231,999,15275,0,-.24E-6,0
O3B FM16,2018-024B,2026-07-22T03:01:22.515456,5.00116039,.0002613,0.0540,3.4405,114.5300,242.0535,0,U,43232,999,15269,0,-.24E-6,0
O3B FM14,2018-024C,2026-07-21T18:24:28.298016,5.00115787,.00028598,0.0528,4.6730,114.7614,240.5916,0,U,43233,999,15268,0,-.24E-6,0
O3B FM13,2018-024D,2026-07-15T05:40:32.456064,5.00115602,.000193,0.0539,323.2184,92.4344,304.3616,0,U,43234,999,15246,0,-.24E-6,0
LKW-4,2018-025A,2026-07-22T05:05:19.564800,15.64997450,.0003676,97.6363,16.9108,163.2982,196.8398,0,U,43236,999,46550,.52915867E-3,.52008E-3,0
BEIDOU-3 M9,2018-029A,2026-07-20T18:39:06.446016,1.86228484,.00012157,54.1608,298.7724,191.8898,168.1446,0,U,43245,999,5652,0,-.98E-6,0
BEIDOU-3 M10,2018-029B,2026-07-21T18:50:46.328352,1.86229141,.00031557,54.1581,298.7638,36.7778,323.2807,0,U,43246,999,5652,0,-.97E-6,0
IRIDIUM 144,2018-030A,2026-07-22T11:07:43.412160,14.34217985,.00024026,86.3951,275.6514,95.8118,264.3352,0,U,43249,999,43519,.33935179E-4,.115E-5,0
IRIDIUM 149,2018-030B,2026-07-22T06:15:27.420192,14.34217573,.00021214,86.3950,275.7027,93.9258,266.2180,0,U,43250,999,43518,-.2714172E-5,.12E-6,0
IRIDIUM 157,2018-030C,2026-07-22T06:42:51.429024,14.34217880,.00022502,86.3949,275.7487,94.7559,265.3894,0,U,43251,999,43516,.608571E-5,.37E-6,0
IRIDIUM 140,2018-030D,2026-07-22T10:31:11.428608,14.34218155,.00022477,86.3951,275.6952,96.1658,263.9794,0,U,43252,999,43524,.47883164E-4,.154E-5,0
IRIDIUM 145,2018-030E,2026-07-22T06:51:59.507424,14.34217597,.00025874,86.3948,275.7305,96.5922,263.5568,0,U,43253,999,43515,.6212705E-5,.37E-6,0
IRIDIUM 146,2018-030F,2026-07-22T06:24:35.507232,14.34217384,.00022384,86.3951,275.7506,95.1889,264.9562,0,U,43254,999,43516,-.1026427E-5,.17E-6,0
IRIDIUM 148,2018-030G,2026-07-22T10:40:19.438752,14.34218264,.00022943,86.3952,275.7205,92.7303,267.4155,0,U,43255,999,43522,.26823447E-4,.95E-6,0
