YAOGAN-30 05B           
1 43171U 18011C   26203.17594229  .00002020  00000+0  14982-3 0  9999
2 43171  34.9958 297.4227 0002102 278.9605  81.0866 15.02863190463480
YAOGAN-30 05C           
1 43172U 18011D   26203.63615440  .00001999  00000+0  14859-3 0  9997
2 43172  34.9972 294.8851 0001678  13.2796 346.7956 15.02774077463429
AL YAH 3                
1 43174U 18012A   26203.46760083 -.00000153  00000+0  00000+0 0  9996
2 43174   1.6404  82.6806 0003729  34.4517 331.3038  1.00272185 31204
SES-14                  
1 43175U 18012B   26203.46231413 -.00000275  00000+0  00000+0 0  9992
2 43175   0.0138  38.0090 0001163  75.2897 305.8316  1.00272544  7371
KANOPUS-V 3             
1 43180U 18014A   26203.62171034  .00002447  00000+0  10734-3 0  9991
2 43180  97.3540 108.4261 0001720  90.1419 270.0015 15.22900154470119
KANOPUS-V 4             
1 43181U 18014B   26202.80124806 -.00002488  00000+0 -10307-3 0  9999
2 43181  97.3553 107.7829 0001808  91.3652 268.7792 15.22984792470009
S-NET D                 
1 43186U 18014G   26203.29341551  .00004436  00000+0  22811-3 0  9992
2 43186  97.5322 107.8657 0006228 253.5912 106.4637 15.16961563464083
S-NET B                 
1 43187U 18014H   26203.30556226  .00004505  00000+0  23177-3 0  9995
2 43187  97.5325 107.8655 0006908 247.8907 112.1593 15.16930470464088
S-NET A                 
1 43188U 18014J   26203.29210040  .00004449  00000+0  22871-3 0  9992
2 43188  97.5337 108.0676 0006790 248.8700 111.1807 15.16969735464082
S-NET C                 
1 43189U 18014K   26203.44156010  .00004162  00000+0  21439-3 0  9997
2 43189  97.5355 108.2963 0008267 239.9256 120.1158 15.16922824462650
ZHANGHENG 1-01 (CSES-1) 
1 43194U 18015C   26203.60281897  .00007562  00000+0  34620-3 0  9997
2 43194  97.6902   9.9694 0016928 140.3790 219.8686 15.20677562470027
BEIDOU-3 M4             
1 43207U 18018A   26202.02956916 -.00000080  00000+0  00000+0 0  9991
2 43207  56.6812  62.0321 0007144  31.4150 328.6897  1.86231251 57374
BEIDOU-3 M3             
1 43208U 18018B   26202.63302743 -.00000079  00000+0  00000+0 0  9990
2 43208  56.6811  62.0163 0007201 348.0427  12.0023  1.86231119 57385
PAZ                     
1 43215U 18020A   26203.28066823  .00001500  00000+0  74603-4 0  9993
2 43215  97.4460 210.1686 0001672  88.8680 271.2746 15.19161134466338
GOES 17                 
1 43226U 18022A   26203.45399409 -.00000180  00000+0  00000+0 0  9994
2 43226   1.0251  85.1599 0000675  57.9242 231.0538  1.00272005 30778
HISPASAT 30W-6          
1 43228U 18023A   26203.32326801 -.00000213  00000+0  00000+0 0  9996
2 43228   0.0425  52.4066 0005323  42.9836 291.0638  1.00272436 30759
PODSAT                  
1 43229U 18023B   26201.91047652  .00047379 -10682-5  39703-3 0  9997
2 43229  26.8548  37.9740 3454723 257.4844  62.4445  8.62215444195687
O3B FM15                
1 43231U 18024A   26202.67385466 -.00000024  00000+0  00000+0 0  9990
2 43231   0.0531 359.0857 0002600 119.5870 241.3509  5.00115847152755
O3B FM16                
1 43232U 18024B   26203.12595504 -.00000024  00000+0  00000+0 0  9998
2 43232   0.0540   3.4405 0002613 114.5300 242.0535  5.00116039152696
O3B FM14                
1 43233U 18024C   26202.76699419 -.00000024  00000+0  00000+0 0  9998
2 43233   0.0528   4.6730 0002859 114.7614 240.5916  5.00115787152683
O3B FM13                
1 43234U 18024D   26196.23648676 -.00000024  00000+0  00000+0 0  9992
2 43234   0.0539 323.2184 0001930  92.4344 304.3616  5.00115602152468
LKW-4                   
1 43236U 18025A   26203.21203200  .00052008  00000+0  52916-3 0  9997
2 43236  97.6363  16.9108 0003676 163.2982 196.8398 15.64997450465506
BEIDOU-3 M9             
1 43245U 18029A   26201.77715794 -.00000098  00000+0  00000+0 0  9992
2 43245  54.1608 298.7724 0001215 191.8898 168.1446  1.86228484 56527
BEIDOU-3 M10            
1 43246U 18029B   26202.78525843 -.00000097  00000+0  00000+0 0  9998
2 43246  54.1581 298.7638 0003155  36.7778 323.2807  1.86229141 56527
IRIDIUM 144             
1 43249U 18030A   26203.46369690  .00000115  00000+0  33935-4 0  9993
2 43249  86.3951 275.6514 0002402  95.8118 264.3352 14.34217985435197
IRIDIUM 149             
1 43250U 18030B   26203.26073403  .00000012  00000+0 -27142-5 0  9998
2 43250  86.3950 275.7027 0002121  93.9258 266.2180 14.34217573435182
IRIDIUM 157             
1 43251U 18030C   26203.27976191  .00000037  00000+0  60857-5 0  9992
2 43251  86.3949 275.7487 0002250  94.7559 265.3894 14.34217880435168
IRIDIUM 140             
1 43252U 18030D   26203.43832672  .00000154  00000+0  47883-4 0  9999
2 43252  86.3951 275.6952 0002247  96.1658 263.9794 14.34218155435248
IRIDIUM 145             
1 43253U 18030E   26203.28610541  .00000037  00000+0  62127-5 0  9991
2 43253  86.3948 275.7305 0002587  96.5922 263.5568 14.34217597435157
IRIDIUM 146             
1 43254U 18030F   26203.26707763  .00000017  00000+0 -10264-5 0  9997
2 43254  86.3951 275.7506 0002238  95.1889 264.9562 14.34217384435169
IRIDIUM 148             
1 43255U 18030G   26203.44466943  .00000095  00000+0  26823-4 0  9992
2 43255  86.3952 275.7205 0002294  92.7303 267.4155 14.34218264435224
